ONEWEB-0012             
1 44057U 19010A   26158.75355801  .00000005  00000+0 -19907-4 0  9992
2 44057  87.9103 230.6584 0002111  86.6322 273.5051 13.16594797350328
ONEWEB-0010             
1 44058U 19010B   26158.70289128 -.00000031  00000+0 -11438-3 0  9996
2 44058  87.9101 230.6641 0001773 104.7123 255.4204 13.16593771350369
ONEWEB-0008             
1 44059U 19010C   26158.72822791  .00000100  00000+0  22825-3 0  9995
2 44059  87.9099 230.6547 0002261 101.3892 258.7493 13.16595312350482
ONEWEB-0007             
1 44060U 19010D   26158.75582147 -.00000003  00000+0 -42147-4 0  9992
2 44060  87.9004 261.1000 0001692  94.6648 265.4675 13.15547770350136
ONEWEB-0006             
1 44061U 19010E   26158.75977272 -.00000071  00000+0 -22339-3 0  9995
2 44061  87.9014 261.0625 0001805 101.8093 258.3240 13.15548159350187
ONEWEB-0011             
1 44062U 19010F   26158.72808341  .00000152  00000+0  36837-3 0  9999
2 44062  87.9014 261.0786 0001947 106.7089 253.4255 13.15550621350170
ONEWEB-0013             
1 45131U 20008A   26158.77153501  .00000747  00000+0  21306-2 0  9996
2 45131  87.8529  54.7245 0002628  62.0179 298.1214 13.09458652304833
ONEWEB-0017             
1 45132U 20008B   26158.68409147 -.00000537  00000+0 -15735-2 0  9995
2 45132  87.8841  38.1616 0001584  85.7171 274.4137 13.10369857306702
ONEWEB-0020             
1 45133U 20008C   26158.73059576  .00000665  00000+0  18674-2 0  9994
2 45133  87.8841  38.1505 0001820  81.5028 278.6305 13.10372508307103
ONEWEB-0021             
1 45134U 20008D   26158.66916708  .00000251  00000+0  68142-3 0  9993
2 45134  87.8839  38.1789 0001778  78.9814 281.1514 13.10369903307409
ONEWEB-0023             
1 45136U 20008F   26158.67994796 -.00000329  00000+0 -97938-3 0  9992
2 45136  87.8843  38.1582 0001935  80.2362 279.8984 13.10369394306831
ONEWEB-0024             
1 45137U 20008G   26158.72907170  .00000636  00000+0  17864-2 0  9997
2 45137  87.8855  38.1408 0001789  81.2006 278.9324 13.10372595307000
ONEWEB-0025             
1 45138U 20008H   26158.72879632  .00000578  00000+0  16201-2 0  9998
2 45138  87.8856  38.1302 0002111  94.2856 265.8513 13.10372344307335
ONEWEB-0026             
1 45139U 20008J   26158.85035623  .00000381  00000+0  10405-2 0  9999
2 45139  87.8894  22.9269 0001716  88.7778 271.3547 13.11416160309889
ONEWEB-0028             
1 45140U 20008K   26158.67295306  .00006299  00000+0  17859-1 0  9990
2 45140  87.8896  22.9701 0002432  71.2641 288.8751 13.10904009307371
ONEWEB-0032             
1 45141U 20008L   26158.68588889 -.00000511  00000+0 -15002-2 0  9995
2 45141  87.8842  38.1629 0002184  73.7359 286.4008 13.10370551307051
ONEWEB-0033             
1 45142U 20008M   26158.66087284  .00000535  00000+0  14969-2 0  9992
2 45142  87.8838  38.1750 0001412  94.2373 265.8916 13.10370233306964
ONEWEB-0035             
1 45143U 20008N   26158.68092500 -.00000335  00000+0 -99681-3 0  9997
2 45143  87.8836  38.1641 0001717  84.2432 275.8891 13.10371286306697
ONEWEB-0036             
1 45144U 20008P   26158.72958211  .00004168  00000+0  11988-1 0  9991
2 45144  87.8869  38.1632 0002289  75.0546 285.0834 13.09849471307126
ONEWEB-0038             
1 45145U 20008Q   26158.63177495 -.00000070  00000+0 -23206-3 0  9997
2 45145  87.8910  22.9775 0001177  17.2380 342.8788 13.11414498309078
ONEWEB-0039             
1 45146U 20008R   26158.74055023  .00000172  00000+0  45563-3 0  9993
2 45146  87.8839  38.1491 0002048  67.8549 292.2795 13.10372292306920
ONEWEB-0040             
1 45147U 20008S   26158.73391346  .00000696  00000+0  19574-2 0  9997
2 45147  87.8838  38.1616 0001764  78.8777 281.2549 13.10371664306622
ONEWEB-0043             
1 45149U 20008U   26158.65921876  .00000589  00000+0  16499-2 0  9991
2 45149  87.8844  38.1637 0002187  70.5186 289.6177 13.10371283306937
ONEWEB-0044             
1 45150U 20008V   26158.68741052 -.00000561  00000+0 -16421-2 0  9999
2 45150  87.8850  38.1583 0001882  76.8454 283.2884 13.10371313307237
ONEWEB-0045             
1 45151U 20008W   26158.85544653  .00000243  00000+0  64850-3 0  9992
2 45151  87.8904  22.9163 0001818  79.9589 280.1744 13.11415302309180
ONEWEB-0047             
1 45152U 20008X   26158.68064270 -.00000350  00000+0 -10378-2 0  9992
2 45152  87.8848  38.1590 0001595  80.9895 279.1412 13.10370551306952
ONEWEB-0048             
1 45153U 20008Y   26158.67580128 -.00000114  00000+0 -36346-3 0  9999
2 45153  87.8837  38.1818 0001746  81.3885 278.7441 13.10369595306566
ONEWEB-0049             
1 45154U 20008Z   26158.67898442 -.00000304  00000+0 -90693-3 0  9997
2 45154  87.8841  38.1705 0002213  85.6406 274.4974 13.10369419306786
ONEWEB-0051             
1 45155U 20008AA  26158.85376036  .00000275  00000+0  73991-3 0  9995
2 45155  87.8896  22.9248 0001826  83.9523 276.1812 13.11415030309864
ONEWEB-0052             
1 45156U 20008AB  26158.69917314 -.00000529  00000+0 -15506-2 0  9999
2 45156  87.8847  38.1524 0002239  84.8350 275.3033 13.10373807306692
ONEWEB-0053             
1 45157U 20008AC  26158.73225656  .00000647  00000+0  18183-2 0  9999
2 45157  87.8839  38.1676 0002264  75.0045 285.1332 13.10372109306676
