OBJECT_NAME,OBJECT_ID,EPOCH,MEAN_MOTION,ECCENTRICITY,INCLINATION,RA_OF_ASC_NODE,ARG_OF_PERICENTER,MEAN_ANOMALY,EPHEMERIS_TYPE,CLASSIFICATION_TYPE,NORAD_CAT_ID,ELEMENT_SET_NO,REV_AT_EPOCH,BSTAR,MEAN_MOTION_DOT,MEAN_MOTION_DDOT
ONEWEB-0012,2019-010A,2026-06-07T18:05:07.412064,13.16594797,.0002111,87.9103,230.6584,86.6322,273.5051,0,U,44057,999,35032,-.19907E-4,.5E-7,0
ONEWEB-0010,2019-010B,2026-06-07T16:52:09.806592,13.16593771,.0001773,87.9101,230.6641,104.7123,255.4204,0,U,44058,999,35036,-.11438E-3,-.31E-6,0
ONEWEB-0008,2019-010C,2026-06-07T17:28:38.891424,13.16595312,.0002261,87.9099,230.6547,101.3892,258.7493,0,U,44059,999,35048,.22825E-3,.1E-5,0
ONEWEB-0007,2019-010D,2026-06-07T18:08:22.975008,13.15547770,.0001692,87.9004,261.1000,94.6648,265.4675,0,U,44060,999,35013,-.42147E-4,-.3E-7,0
ONEWEB-0006,2019-010E,2026-06-07T18:14:04.363008,13.15548159,.0001805,87.9014,261.0625,101.8093,258.3240,0,U,44061,999,35018,-.22339E-3,-.71E-6,0
ONEWEB-0011,2019-010F,2026-06-07T17:28:26.406624,13.15550621,.0001947,87.9014,261.0786,106.7089,253.4255,0,U,44062,999,35017,.36837E-3,.152E-5,0
ONEWEB-0013,2020-008A,2026-06-07T18:31:00.624864,13.09458652,.0002628,87.8529,54.7245,62.0179,298.1214,0,U,45131,999,30483,.21306E-2,.747E-5,0
ONEWEB-0017,2020-008B,2026-06-07T16:25:05.503008,13.10369857,.0001584,87.8841,38.1616,85.7171,274.4137,0,U,45132,999,30670,-.15735E-2,-.537E-5,0
ONEWEB-0020,2020-008C,2026-06-07T17:32:03.473664,13.10372508,.000182,87.8841,38.1505,81.5028,278.6305,0,U,45133,999,30710,.18674E-2,.665E-5,0
ONEWEB-0021,2020-008D,2026-06-07T16:03:36.035712,13.10369903,.0001778,87.8839,38.1789,78.9814,281.1514,0,U,45134,999,30740,.68142E-3,.251E-5,0
ONEWEB-0023,2020-008F,2026-06-07T16:19:07.503744,13.10369394,.0001935,87.8843,38.1582,80.2362,279.8984,0,U,45136,999,30683,-.97938E-3,-.329E-5,0
ONEWEB-0024,2020-008G,2026-06-07T17:29:51.794880,13.10372595,.0001789,87.8855,38.1408,81.2006,278.9324,0,U,45137,999,30700,.17864E-2,.636E-5,0
ONEWEB-0025,2020-008H,2026-06-07T17:29:28.002048,13.10372344,.0002111,87.8856,38.1302,94.2856,265.8513,0,U,45138,999,30733,.16201E-2,.578E-5,0
ONEWEB-0026,2020-008J,2026-06-07T20:24:30.778272,13.11416160,.0001716,87.8894,22.9269,88.7778,271.3547,0,U,45139,999,30988,.10405E-2,.381E-5,0
ONEWEB-0028,2020-008K,2026-06-07T16:09:03.144384,13.10904009,.0002432,87.8896,22.9701,71.2641,288.8751,0,U,45140,999,30737,.17859E-1,.6299E-4,0
ONEWEB-0032,2020-008L,2026-06-07T16:27:40.800096,13.10370551,.0002184,87.8842,38.1629,73.7359,286.4008,0,U,45141,999,30705,-.15002E-2,-.511E-5,0
ONEWEB-0033,2020-008M,2026-06-07T15:51:39.413376,13.10370233,.0001412,87.8838,38.1750,94.2373,265.8916,0,U,45142,999,30696,.14969E-2,.535E-5,0
ONEWEB-0035,2020-008N,2026-06-07T16:20:31.920000,13.10371286,.0001717,87.8836,38.1641,84.2432,275.8891,0,U,45143,999,30669,-.99681E-3,-.335E-5,0
ONEWEB-0036,2020-008P,2026-06-07T17:30:35.894304,13.09849471,.0002289,87.8869,38.1632,75.0546,285.0834,0,U,45144,999,30712,.11988E-1,.4168E-4,0
ONEWEB-0038,2020-008Q,2026-06-07T15:09:45.355680,13.11414498,.0001177,87.8910,22.9775,17.2380,342.8788,0,U,45145,999,30907,-.23206E-3,-.7E-6,0
ONEWEB-0039,2020-008R,2026-06-07T17:46:23.539872,13.10372292,.0002048,87.8839,38.1491,67.8549,292.2795,0,U,45146,999,30692,.45563E-3,.172E-5,0
ONEWEB-0040,2020-008S,2026-06-07T17:36:50.122944,13.10371664,.0001764,87.8838,38.1616,78.8777,281.2549,0,U,45147,999,30662,.19574E-2,.696E-5,0
ONEWEB-0043,2020-008U,2026-06-07T15:49:16.500864,13.10371283,.0002187,87.8844,38.1637,70.5186,289.6177,0,U,45149,999,30693,.16499E-2,.589E-5,0
ONEWEB-0044,2020-008V,2026-06-07T16:29:52.268928,13.10371313,.0001882,87.8850,38.1583,76.8454,283.2884,0,U,45150,999,30723,-.16421E-2,-.561E-5,0
ONEWEB-0045,2020-008W,2026-06-07T20:31:50.580192,13.11415302,.0001818,87.8904,22.9163,79.9589,280.1744,0,U,45151,999,30918,.6485E-3,.243E-5,0
ONEWEB-0047,2020-008X,2026-06-07T16:20:07.529280,13.10370551,.0001595,87.8848,38.1590,80.9895,279.1412,0,U,45152,999,30695,-.10378E-2,-.35E-5,0
ONEWEB-0048,2020-008Y,2026-06-07T16:13:09.230592,13.10369595,.0001746,87.8837,38.1818,81.3885,278.7441,0,U,45153,999,30656,-.36346E-3,-.114E-5,0
ONEWEB-0049,2020-008Z,2026-06-07T16:17:44.253888,13.10369419,.0002213,87.8841,38.1705,85.6406,274.4974,0,U,45154,999,30678,-.90693E-3,-.304E-5,0
ONEWEB-0051,2020-008AA,2026-06-07T20:29:24.895104,13.11415030,.0001826,87.8896,22.9248,83.9523,276.1812,0,U,45155,999,30986,.73991E-3,.275E-5,0
ONEWEB-0052,2020-008AB,2026-06-07T16:46:48.559296,13.10373807,.0002239,87.8847,38.1524,84.8350,275.3033,0,U,45156,999,30669,-.15506E-2,-.529E-5,0
ONEWEB-0053,2020-008AC,2026-06-07T17:34:26.966784,13.10372109,.0002264,87.8839,38.1676,75.0045,285.1332,0,U,45157,999,30667,.18183E-2,.647E-5,0
